IRIDIUM 33 DEB          
1 35628U 97051RA  26092.36565905  .00009120  00000+0  15304-2 0  9990
2 35628  86.3558 319.6752 0010215 320.3322  39.7146 14.69576553880702
IRIDIUM 33 DEB          
1 35631U 97051RD  26093.66258222  .00001705  00000+0  45598-3 0  9999
2 35631  86.3691 332.7959 0018786 104.9103 311.4138 14.47695741888169
IRIDIUM 33 DEB          
1 35680U 97051RJ  26090.43695588  .00006338  00000+0  25231-2 0  9993
2 35680  86.1058 333.3438 0149317 294.8095 246.1370 14.22612925622457
IRIDIUM 33 DEB          
1 35744U 97051RX  26091.93494960  .00007678  00000+0  11959-2 0  9991
2 35744  86.3228 275.5653 0020833 172.9651 187.1863 14.72708679889521
IRIDIUM 33 DEB          
1 35797U 97051SF  26093.26274534  .00027844  00000+0  31364-2 0  9999
2 35797  86.3298 278.5703 0012597 123.7058 236.5370 14.86445536889952
IRIDIUM 33 DEB          
1 35806U 97051SQ  26087.41700966  .00004716  00000+0  10059-2 0  9994
2 35806  86.3462 334.0677 0015971  72.6099 287.6855 14.58659928878640
IRIDIUM 33 DEB          
1 35809U 97051ST  26091.26711666  .00012675  00000+0  17346-2 0  9993
2 35809  86.3216 285.3551 0010460 219.8511 140.1942 14.78394809884240
IRIDIUM 33 DEB          
1 35846U 97051SW  26094.21241749  .00003218  00000+0  94085-3 0  9991
2 35846  86.3803  10.8252 0018119 155.6074 204.5989 14.43670351729517
IRIDIUM 33 DEB          
1 35848U 97051SY  26091.92495115  .00011647  00000+0  14715-2 0  9992
2 35848  86.3902 326.4626 0007335 163.4408 196.7055 14.81777012683201
IRIDIUM 33 DEB          
1 35850U 97051TA  26089.28458259  .00013568  00000+0  17139-2 0  9996
2 35850  86.3449 295.2049 0009133 172.3838 187.7525 14.81777826729482
IRIDIUM 33 DEB          
1 35915U 97051TY  26082.86992109  .00012841  00000+0  15384-2 0  9995
2 35915  86.3396 296.6253 0009705 195.9754 164.1165 14.83975606 95843
IRIDIUM 33 DEB          
1 35918U 97051UB  26091.55594726  .00004293  00000+0  10470-2 0  9990
2 35918  86.4051  28.6252 0026003 157.4201  20.4294 14.52281649868003
IRIDIUM 33 DEB          
1 35929U 97051UN  26093.71090570  .00072023  00000+0  41458-2 0  9996
2 35929  86.3398 259.2114 0012987 332.4660  27.5889 15.12052380894661
IRIDIUM 33 DEB          
1 36011U 97051US  26092.46423228  .00001815  00000+0  54953-3 0  9996
2 36011  86.3450 347.8727 0016883 211.8744 329.2715 14.41749682661356
IRIDIUM 33 DEB          
1 36012U 97051UT  26094.18399670  .00007287  00000+0  26625-2 0  9994
2 36012  86.4388 262.1106 0215199 263.2585  94.4074 14.20836964670809
IRIDIUM 33 DEB          
1 36028U 97051VK  26089.69582518  .00038639  00000+0  29684-2 0  9999
2 36028  86.3177 255.6584 0014691  17.8833 342.2914 15.01489736887416
